STARLINK-36349          
1 67964U 26038D   26074.25001157  .00060610  00000+0  40491-3 0  9994
2 67964  97.2860  84.8315 0001016  56.1859 254.3721 15.75157840  4097
STARLINK-36806          
1 67965U 26038E   26074.25001157  .00065081  00000+0  43455-3 0  9995
2 67965  97.2862  84.8360 0001454 100.2114 224.3502 15.75154251  4098
STARLINK-36820          
1 67966U 26038F   26074.25001157  .00067603  00000+0  45132-3 0  9992
2 67966  97.2877  84.8387 0001265 114.9967 215.5593 15.75149305  4098
STARLINK-36819          
1 67967U 26038G   26074.25001157 -.02366422  00000+0 -26433-1 0  9999
2 67967  97.2839  84.8309 0001314  97.7115 208.5275 15.65962668  4092
STARLINK-36812          
1 67968U 26038H   26074.25001157  .00100878  00000+0  67104-3 0  9999
2 67968  97.2880  84.8423 0001282  86.7367 255.8304 15.75127791  4096
STARLINK-36709          
1 67969U 26038J   26074.25001157  .00022575  00000+0  15191-3 0  9996
2 67969  97.2867  84.8488 0001632  73.1681 283.3850 15.75175113  4094
STARLINK-36319          
1 67970U 26038K   26074.25001157  .00083653  00000+0  55763-3 0  9991
2 67970  97.2881  84.8451 0001686 128.7914 221.7863 15.75131312  4067
STARLINK-36710          
1 67971U 26038L   26074.25001157  .00001862  00000+0  13363-4 0  9995
2 67971  97.2864  84.8531 0000929  94.6919 271.8757 15.75172937  4092
STARLINK-36894          
1 67972U 26038M   26074.25001157  .00092547  00000+0  61587-3 0  9996
2 67972  97.2866  84.8538 0001186  52.1363 320.4028 15.75143804  4093
STARLINK-36900          
1 67973U 26038N   26074.25001157 -.02325490  00000+0 -21713-1 0  9992
2 67973  97.2844  84.8578 0001351  81.9937 295.8032 15.70840306  4091
STARLINK-36901          
1 67974U 26038P   26074.25001157  .00048983  00000+0  32785-3 0  9991
2 67974  97.2865  84.8559 0000877 106.9735 271.5734 15.75158148  4091
STARLINK-36883          
1 67975U 26038Q   26074.25001157  .00039045  00000+0  26191-3 0  9995
2 67975  97.2852  84.8693 0001391  77.2477 337.3282 15.75148849  4098
